CSS (TIANHE)            
1 48274U 21035A   26197.88145381  .00001197  00000+0  19704-4 0  9991
2 48274  41.4694 141.6124 0002268 301.6300  58.4316 15.58131325297802
